IRIDIUM 112             
1 41925U 17003J   23316.53752682  .00000181  00000+0  57640-4 0  9990
2 41925  86.3936 124.3825 0002014  85.0589 275.0837 14.34217592357448
IRIDIUM 111             
1 41926U 17003K   23316.52484155  .00000173  00000+0  54592-4 0  9991
2 41926  86.3939 124.4375 0001870  95.1677 264.9732 14.34218469357425
IRIDIUM 113             
1 42803U 17039A   23316.57457723  .00000480  00000+0  16419-3 0  9997
2 42803  86.3998 358.1665 0001949  92.4618 267.6801 14.34215512335367
IRIDIUM 123             
1 42804U 17039B   23316.47651521  .00000565  00000+0  19484-3 0  9998
2 42804  86.4012  29.6924 0001906  92.5374 267.6040 14.34216749334117
IRIDIUM 120             
1 42805U 17039C   23316.56823018  .00000392  00000+0  13295-3 0  9993
2 42805  86.3987 358.0746 0002088  93.5868 266.5567 14.34215289335357
IRIDIUM 115             
1 42806U 17039D   23316.57410827  .00000579  00000+0  16588-3 0  9990
2 42806  86.4535 358.0655 0002301 102.6752 257.4706 14.43332678337582
IRIDIUM 118             
1 42807U 17039E   23316.57799836  .00000563  00000+0  19391-3 0  9999
2 42807  86.4011  29.6523 0002097  93.9504 266.1931 14.34216998334126
IRIDIUM 117             
1 42808U 17039F   23316.24818297  .00000360  00000+0  12159-3 0  9997
2 42808  86.4011  29.7562 0002037  97.8396 262.3031 14.34213621334104
